ONEWEB-0415             
1 51624U 22012C   25024.39238172  .00000175  00000+0  46561-3 0  9990
2 51624  87.8911 137.6529 0001963 107.8445 252.2896 13.10370776143934
ONEWEB-0416             
1 51625U 22012D   25024.70941737 -.00000417  00000+0 -12318-2 0  9997
2 51625  87.8918 137.5977 0001669 106.4323 253.6988 13.10370769144021
ONEWEB-0422             
1 51626U 22012E   25024.75880899  .00000014  00000+0  29531-5 0  9993
2 51626  87.9085 107.1466 0001855 129.9163 230.2131 13.17648346148136
ONEWEB-0423             
1 51627U 22012F   25024.60018860 -.00000023  00000+0 -93081-4 0  9991
2 51627  87.9086 107.1825 0001640 106.0576 254.0737 13.17647610146725
ONEWEB-0425             
1 51628U 22012G   25024.33758109 -.00000558  00000+0 -16350-2 0  9994
2 51628  87.8922 137.6475 0001335  96.8163 263.3117 13.10372371142680
ONEWEB-0428             
1 51629U 22012H   25024.24132009  .00000005  00000+0 -21205-4 0  9993
2 51629  87.8914 137.6855 0001766 114.6572 245.4739 13.10370097142634
ONEWEB-0431             
1 51630U 22012J   25024.36402920  .00000461  00000+0  12846-2 0  9994
2 51630  87.8917 137.6433 0002175 117.6330 242.5019 13.10375870142702
ONEWEB-0434             
1 51631U 22012K   25024.34090842 -.00000583  00000+0 -17062-2 0  9991
2 51631  87.8922 137.6781 0001109  86.5126 273.6128 13.10375087142681
